NOAA 15                 
1 25338U 98030A   25036.48805242  .00000380  00000+0  17428-3 0  9995
2 25338  98.5492  64.5291 0010295   8.8276 351.3084 14.26875855390451
DMSP 5D-3 F16 (USA 172) 
1 28054U 03048A   25036.57118273  .00000362  00000+0  21327-3 0  9992
2 28054  99.0199  51.2483 0008241 111.3735 346.1566 14.14274462 99281
NOAA 18                 
1 28654U 05018A   25036.54018064  .00000414  00000+0  24331-3 0  9997
2 28654  98.8531 117.3775 0015109 120.5803 239.6862 14.13507670 16149
METEOSAT-9 (MSG-2)      
1 28912U 05049B   25036.16573010  .00000123  00000+0  00000+0 0  9993
2 28912   8.2241  58.8476 0000575 207.6761 334.3390  1.00273662  2021
EWS-G1 (GOES 13)        
1 29155U 06018A   25036.56682985 -.00000233  00000+0  00000+0 0  9999
2 29155   3.2365  82.5075 0065818 259.7048 164.5160  0.98833198 38343
DMSP 5D-3 F17 (USA 191) 
1 29522U 06050A   25036.52637105  .00000416  00000+0  23835-3 0  9990
2 29522  98.7426  48.2876 0010642  39.4212 320.7734 14.14744098942189
FENGYUN 3A              
1 32958U 08026A   25036.60153396  .00000415  00000+0  21777-3 0  9998
2 32958  98.6343 343.3436 0009701 115.7444 244.4735 14.19359829864953
NOAA 19                 
1 33591U 09005A   25036.59723434  .00000379  00000+0  22637-3 0  9999
2 33591  99.0156 100.5228 0013551 358.0597   2.0520 14.13278165824330
GOES 14                 
1 35491U 09033A   25036.64411874 -.00000069  00000+0  00000+0 0  9992
2 35491   0.3926  90.3055 0001663 163.3885   6.3214  1.00275013  1619
DMSP 5D-3 F18 (USA 210) 
1 35951U 09057A   25036.58126351  .00000586  00000+0  32842-3 0  9991
2 35951  98.8455  15.2071 0010305 219.0302 141.0129 14.14494688789377
EWS-G2 (GOES 15)        
1 36411U 10008A   25036.52003041  .00000039  00000+0  00000+0 0  9995
2 36411   0.0165 114.6881 0005084 157.9484 112.0408  1.00267616 54658
COMS 1                  
1 36744U 10032A   25036.36622399 -.00000345  00000+0  00000+0 0  9997
2 36744   3.5334  81.9061 0001057 233.1314  80.7201  1.00270647 46105
FENGYUN 3B              
1 37214U 10059A   25036.56793872  .00000210  00000+0  13255-3 0  9996
2 37214  99.0313  73.6532 0022688 150.9975   1.1951 14.14673533737205
SUOMI NPP               
1 37849U 11061A   25036.55869286  .00000263  00000+0  14534-3 0  9995
2 37849  98.7465 337.2761 0000666   5.6419 354.4764 14.19551287687988
METEOSAT-10 (MSG-3)     
1 38552U 12035B   25036.32667934 -.00000007  00000+0  00000+0 0  9996
2 38552   3.5002  61.9819 0001887 231.9966 319.3644  1.00268964 45879
METOP-B                 
1 38771U 12049A   25036.58189228  .00000298  00000+0  15589-3 0  9990
2 38771  98.5973  94.1807 0001225  59.6486 300.4813 14.21426116642713
INSAT-3D                
1 39216U 13038B   25036.51762313 -.00000338  00000+0  00000+0 0  9993
2 39216   0.6391  89.6113 0003045 208.0327 154.1102  1.00269756 42101
FENGYUN 3C              
1 39260U 13052A   25036.46057398  .00000300  00000+0  17403-3 0  9999
2 39260  98.4453  29.8472 0015061  18.4549 341.7170 14.15554254588281
METEOR-M 2              
1 40069U 14037A   25036.57553382  .00000390  00000+0  19839-3 0  9992
2 40069  98.4573  26.6402 0006621  47.9570 312.2170 14.21209860548774
HIMAWARI-8              
1 40267U 14060A   25036.58933512 -.00000275  00000+0  00000+0 0  9995
2 40267   0.0414 260.1265 0000944  64.1609 164.4705  1.00267692 37780
FENGYUN 2G              
1 40367U 14090A   25036.06065130 -.00000302  00000+0  00000+0 0  9995
2 40367   4.3735  78.8557 0001354 135.9757  41.9897  1.00275453 37010
METEOSAT-11 (MSG-4)     
1 40732U 15034A   25036.32859071  .00000065  00000+0  00000+0 0  9999
2 40732   1.9571  72.0110 0001130 228.0396 323.5258  1.00269889  2235
ELEKTRO-L 2             
1 41105U 15074A   25036.32381228 -.00000118  00000+0  00000+0 0  9992
2 41105   5.4357  76.6471 0003881 211.6239 309.4966  1.00270124 33529
INSAT-3DR               
1 41752U 16054A   25036.44975557 -.00000075  00000+0  00000+0 0  9998
2 41752   0.0458  97.8405 0013262 179.4488  94.4339  1.00270791 30839
HIMAWARI-9              
1 41836U 16064A   25036.58933512 -.00000274  00000+0  00000+0 0  9993
2 41836   0.0358 223.8479 0001046 102.2572 162.7910  1.00271684 30238
GOES 16                 
1 41866U 16071A   25036.31173588 -.00000246  00000+0  00000+0 0  9993
2 41866   0.0520 269.1102 0001744  69.0597 194.5363  1.00271755 30122
FENGYUN 4A              
1 41882U 16077A   25021.48357438 -.00000176  00000+0  00000+0 0  9999
2 41882   1.0146  85.6565 0011073 343.9543 311.7920  1.00265548 29796
CYGFM05                 
1 41884U 16078A   25035.99603134  .00018241  00000+0  50843-3 0  9995
2 41884  34.9607 258.1005 0008172 177.1928 182.8837 15.35845510451789
CYGFM04                 
1 41885U 16078B   25036.60520483  .00019526  00000+0  52225-3 0  9993
2 41885  34.9351 235.4822 0007498 201.8216 158.2184 15.37116625451991
CYGFM02                 
1 41886U 16078C   25036.61856748  .00021216  00000+0  54970-3 0  9999
2 41886  34.9438 236.6865 0009413 191.8508 168.1990 15.38064356452090
CYGFM01                 
1 41887U 16078D   25036.01160719  .00018791  00000+0  51863-3 0  9992
2 41887  34.9441 262.0919 0007592 160.3322 199.7690 15.36150689451717
CYGFM08                 
1 41888U 16078E   25036.25836763  .00018497  00000+0  49819-3 0  9999
2 41888  34.9467 246.3002 0009887 186.4380 173.6212 15.36888894451959
CYGFM07                 
1 41890U 16078G   25036.56752746  .00019501  00000+0  51769-3 0  9998
2 41890  34.9484 234.9383 0007986 208.7837 151.2441 15.37344187452005
CYGFM03                 
1 41891U 16078H   25036.62188108  .00019476  00000+0  52012-3 0  9994
2 41891  34.9433 236.0120 0006805 190.6672 169.3903 15.37169836451993
FENGYUN 3D              
1 43010U 17072A   25036.62483468  .00000297  00000+0  16247-3 0  9992
2 43010  98.9454 359.0641 0002285  51.9919 308.1462 14.19558733374530
NOAA 20 (JPSS-1)        
1 43013U 17073A   25036.50423411  .00000225  00000+0  12764-3 0  9996
2 43013  98.7306 336.7539 0000129 353.5817   6.5358 14.19550313374009
GOES 17                 
1 43226U 18022A   25036.47439953 -.00000089  00000+0  00000+0 0  9996
2 43226   0.0093  52.8930 0003353 227.8844 281.1627  1.00271505 25440
FENGYUN 2H              
1 43491U 18050A   25036.34240471 -.00000126  00000+0  00000+0 0  9994
2 43491   1.7475  85.0280 0001308 197.3393  55.7519  1.00267943 24456
METOP-C                 
1 43689U 18087A   25036.62028766  .00000301  00000+0  15759-3 0  9990
2 43689  98.6926  98.7867 0002246 125.8395 234.2992 14.21496991324280
GEO-KOMPSAT-2A          
1 43823U 18100A   25035.99488278 -.00000342  00000+0  00000+0 0  9998
2 43823   0.0121  76.6982 0000761 317.8969 227.1842  1.00271138 22644
METEOR-M2 2             
1 44387U 19038A   25036.49675044  .00000313  00000+0  15554-3 0  9991
2 44387  98.8599  13.0575 0001845  45.6172 314.5157 14.24133521290597
ARKTIKA-M 1             
1 47719U 21016A   25031.05147955  .00000103  00000+0  00000+0 0  9997
2 47719  63.1316 124.8980 7038799 268.4806  17.2103  2.00621670 28715
FENGYUN 3E              
1 49008U 21062A   25036.54004870  .00000098  00000+0  66903-4 0  9990
2 49008  98.7411  40.7830 0002672  84.3685 275.7796 14.19838740186100
GOES 18                 
1 51850U 22021A   25036.62537666  .00000098  00000+0  00000+0 0  9998
2 51850   0.0286 293.1526 0000309  54.1530 236.8111  1.00271019  1616
NOAA 21 (JPSS-2)        
1 54234U 22150A   25036.54052783  .00000263  00000+0  14562-3 0  9999
2 54234  98.7159 337.2883 0001879 144.8025 215.3275 14.19531990116085
METEOSAT-12 (MTG-I1)    
1 54743U 22170C   25036.32659245 -.00000005  00000+0  00000+0 0  9991
2 54743   0.6150  38.0316 0001975 255.1894 319.7858  1.00270822  7992
TIANMU-1 03             
1 55973U 23039A   25036.56969508  .00017532  00000+0  58932-3 0  9997
2 55973  97.4855 193.4231 0005108  77.9313 282.2499 15.30874210104457
TIANMU-1 04             
1 55974U 23039B   25036.53362263  .00016917  00000+0  56564-3 0  9995
2 55974  97.4781 192.7582 0006043  74.8430 285.3479 15.31048926104441
TIANMU-1 05             
1 55975U 23039C   25036.53773310  .00016645  00000+0  56003-3 0  9991
2 55975  97.4828 193.1892 0004808  93.7472 266.4319 15.30857786104439
TIANMU-1 06             
1 55976U 23039D   25036.61669829  .00017187  00000+0  57296-3 0  9997
2 55976  97.4842 193.5119 0005238  91.4942 268.6899 15.31146008104455
METEOR-M2 3             
1 57166U 23091A   25036.61472420  .00000064  00000+0  46793-4 0  9994
2 57166  98.6811  94.8106 0004339 159.3128 200.8228 14.23974715 83844
TIANMU-1 07             
1 57399U 23101A   25036.57631553  .00010504  00000+0  45455-3 0  9996
2 57399  97.3312  93.5968 0005935  92.6163 267.5753 15.22597130 85877
TIANMU-1 08             
1 57400U 23101B   25036.60902596  .00009974  00000+0  43131-3 0  9999
2 57400  97.3301  93.4731 0008125  96.3193 263.8969 15.22618627 85876
TIANMU-1 09             
1 57401U 23101C   25036.52779984  .00010077  00000+0  43572-3 0  9999
2 57401  97.3256  93.0950 0007875  94.2978 265.9159 15.22621216 85865
TIANMU-1 10             
1 57402U 23101D   25036.49450646  .00010935  23783-7  47035-3 0  9999
2 57402  97.3337  93.5842 0009893  92.9128 267.3241 15.22640955 85853
FENGYUN 3F              
1 57490U 23111A   25036.61765363  .00000207  00000+0  11789-3 0  9993
2 57490  98.7425 109.3002 0001791 115.3949 244.7412 14.19988352 78398
ARKTIKA-M 2             
1 58584U 23198A   25036.27317352  .00000177  00000+0  00000+0 0  9992
2 58584  63.2367 208.9133 6896291 269.3073  18.0459  2.00608194  8359
TIANMU-1 11             
1 58645U 23205A   25036.56457220  .00008950  00000+0  41934-3 0  9992
2 58645  97.3861  62.1389 0009154 319.3556  40.6995 15.19896132 61908
TIANMU-1 12             
1 58646U 23205B   25036.58232718  .00009170  00000+0  42971-3 0  9995
2 58646  97.3847  62.0379 0006990 313.1259  46.9391 15.19897957 61891
TIANMU-1 13             
1 58647U 23205C   25036.54854542  .00009813  00000+0  45930-3 0  9999
2 58647  97.3876  62.0910 0007136 288.3002  71.7456 15.19917504 61885
TIANMU-1 14             
1 58648U 23205D   25036.53293615  .00009657  00000+0  45216-3 0  9990
2 58648  97.3804  61.7123 0007723 292.8599  67.1820 15.19904501 61889
TIANMU-1 19             
1 58660U 23208A   25036.28099111  .00011413  00000+0  51692-3 0  9992
2 58660  97.4169 149.9498 0005077 271.7004  88.3650 15.21022790 61520
TIANMU-1 20             
1 58661U 23208B   25036.57831623  .00012207  00000+0  53300-3 0  9997
2 58661  97.4112 150.3892 0007717 282.7619  77.2755 15.22245480 61606
TIANMU-1 21             
1 58662U 23208C   25036.58887042  .00014440  00000+0  60212-3 0  9996
2 58662  97.4152 151.1892 0007386 281.4035  78.6372 15.23771927 61645
TIANMU-1 22             
1 58663U 23208D   25036.60147421  .00012107  00000+0  54558-3 0  9994
2 58663  97.4170 150.3678 0003693 301.8307  58.2569 15.21185863 61586
TIANMU-1 15             
1 58700U 24004A   25036.59573396  .00010588  00000+0  49616-3 0  9993
2 58700  97.4618 220.2369 0007295 318.3058  41.7620 15.19856766 60169
TIANMU-1 16             
1 58701U 24004B   25036.57911193  .00010678  00000+0  50079-3 0  9998
2 58701  97.4549 219.8803 0007642 321.2296  38.8390 15.19826300 60165
TIANMU-1 17             
1 58702U 24004C   25036.56559349  .00010147  00000+0  47718-3 0  9996
2 58702  97.4591 220.1207 0005394 318.8834  41.1994 15.19757805 60157
TIANMU-1 18             
1 58703U 24004D   25036.61213186  .00009634  00000+0  45238-3 0  9993
2 58703  97.4606 220.2953 0005370 308.9489  51.1267 15.19823539 60167
INSAT-3DS               
1 58990U 24033A   25036.60253179 -.00000154  00000+0  00000+0 0  9991
2 58990   0.0545 270.4043 0001694  51.6541 112.9155  1.00269519 42080
METEOR-M2 4             
1 59051U 24039A   25036.62450243  .00000133  00000+0  79444-4 0  9998
2 59051  98.6326 359.1809 0007303 159.3537 200.7937 14.22332530 48675
GOES 19                 
1 60133U 24119A   25036.33100194 -.00000180  00000+0  00000+0 0  9995
2 60133   0.0194 314.0273 0001877  22.5455 188.8047  1.00270972  1987
